STARLINK-32005          
1 60034U 24111U   25308.28001810 -.00001612  00000+0 -42321-4 0  9997
2 60034  53.1606 298.0738 0001192  92.5887 267.5250 15.30201463 79733
STARLINK-31981          
1 60035U 24111V   25308.29896995  .00005538  00000+0  19874-3 0  9990
2 60035  53.1603 298.1895 0001258  94.7312 265.3832 15.30237180 79766
STARLINK-31985          
1 60036U 24111W   25308.29584441 -.00000713  00000+0 -11963-4 0  9995
2 60036  53.1607 298.1699 0001249  91.5076 268.6068 15.30192047 79775
STARLINK-31918          
1 60037U 24111X   25308.26629095  .00000000  00000+0  12139-4 0  9991
2 60037  53.1607 297.9864 0001127  77.3281 282.7845 15.30203406 79763
STARLINK-11129 [DTC]    
1 60038U 24112A   25308.30639438  .00003700  00000+0  35414-4 0  9991
2 60038  53.1542 164.6962 0002071  86.3172 273.8083 15.69693967 81281
STARLINK-11140 [DTC]    
1 60039U 24112B   25307.98313564  .00000023  00000+0  50434-5 0  9999
2 60039  53.1580 166.2321 0000852 116.5141 243.5964 15.69729221 81238
STARLINK-11122 [DTC]    
1 60040U 24112C   25307.97823591 -.00000111  00000+0  39495-5 0  9999
2 60040  53.1566 166.1999 0001504 110.6982 249.4197 15.69714261 81238
STARLINK-11149 [DTC]    
1 60041U 24112D   25308.10066839  .00000152  00000+0  61274-5 0  9994
2 60041  53.1590 165.5388 0002037  93.7960 266.3291 15.69714706 81259
STARLINK-11120 [DTC]    
1 60042U 24112E   25307.90475892 -.00000041  00000+0  45195-5 0  9997
2 60042  53.1581 166.4489 0000949 104.4470 255.6653 15.69707753 81222
STARLINK-11086 [DTC]    
1 60043U 24112F   25307.00847925 -.00001991  00000+0 -11578-4 0  9992
2 60043  53.1595 170.8103 0000933 106.2647 253.8473 15.69718966 81081
STARLINK-11148 [DTC]    
1 60044U 24112G   25307.32192051 -.00001305  00000+0 -59129-5 0  9995
2 60044  53.1583 169.2065 0001209  74.9666 285.1486 15.69718835 81130
STARLINK-11116 [DTC]    
1 60045U 24112H   25308.33572817 -.00000246  00000+0  28362-5 0  9997
2 60045  53.1581 164.1530 0001446 106.0892 254.0286 15.69707775 81292
STARLINK-11155 [DTC]    
1 60046U 24112J   25308.33081810 -.00000707  00000+0 -98439-6 0  9992
2 60046  53.1590 164.1209 0000688  71.7703 288.3389 15.69714834 81290
STARLINK-11163 [DTC]    
1 60047U 24112K   25308.07123115  .00000136  00000+0  59795-5 0  9994
2 60047  53.1580 165.3428 0000899  86.5728 273.5393 15.69717970 81252
STARLINK-11135 [DTC]    
1 60048U 24112L   25307.99285540 -.00000565  00000+0  19519-6 0  9994
2 60048  53.1599 165.5768 0000859 112.4414 247.6695 15.69710284 81246
STARLINK-11151 [DTC]    
1 60049U 24112M   25307.87532694 -.00000627  00000+0 -31512-6 0  9994
2 60049  53.1576 166.2524 0001033  79.9755 280.1379 15.69704649 81227
