[{"OBJECT_NAME":"STARLINK-32005","OBJECT_ID":"2024-111U","EPOCH":"2025-11-04T06:43:13.563840","MEAN_MOTION":15.30201463,"ECCENTRICITY":0.0001192,"INCLINATION":53.1606,"RA_OF_ASC_NODE":298.0738,"ARG_OF_PERICENTER":92.5887,"MEAN_ANOMALY":267.525,"EPHEMERIS_TYPE":0,"CLASSIFICATION_TYPE":"U","NORAD_CAT_ID":60034,"ELEMENT_SET_NO":999,"REV_AT_EPOCH":7973,"BSTAR":-4.2321e-5,"MEAN_MOTION_DOT":-1.612e-5,"MEAN_MOTION_DDOT":0},{"OBJECT_NAME":"STARLINK-31981","OBJECT_ID":"2024-111V","EPOCH":"2025-11-04T07:10:31.003680","MEAN_MOTION":15.3023718,"ECCENTRICITY":0.0001258,"INCLINATION":53.1603,"RA_OF_ASC_NODE":298.1895,"ARG_OF_PERICENTER":94.7312,"MEAN_ANOMALY":265.3832,"EPHEMERIS_TYPE":0,"CLASSIFICATION_TYPE":"U","NORAD_CAT_ID":60035,"ELEMENT_SET_NO":999,"REV_AT_EPOCH":7976,"BSTAR":0.00019874,"MEAN_MOTION_DOT":5.538e-5,"MEAN_MOTION_DDOT":0},{"OBJECT_NAME":"STARLINK-31985","OBJECT_ID":"2024-111W","EPOCH":"2025-11-04T07:06:00.957024","MEAN_MOTION":15.30192047,"ECCENTRICITY":0.0001249,"INCLINATION":53.1607,"RA_OF_ASC_NODE":298.1699,"ARG_OF_PERICENTER":91.5076,"MEAN_ANOMALY":268.6068,"EPHEMERIS_TYPE":0,"CLASSIFICATION_TYPE":"U","NORAD_CAT_ID":60036,"ELEMENT_SET_NO":999,"REV_AT_EPOCH":7977,"BSTAR":-1.1963e-5,"MEAN_MOTION_DOT":-7.13e-6,"MEAN_MOTION_DDOT":0},{"OBJECT_NAME":"STARLINK-31918","OBJECT_ID":"2024-111X","EPOCH":"2025-11-04T06:23:27.538080","MEAN_MOTION":15.30203406,"ECCENTRICITY":0.0001127,"INCLINATION":53.1607,"RA_OF_ASC_NODE":297.9864,"ARG_OF_PERICENTER":77.3281,"MEAN_ANOMALY":282.7845,"EPHEMERIS_TYPE":0,"CLASSIFICATION_TYPE":"U","NORAD_CAT_ID":60037,"ELEMENT_SET_NO":999,"REV_AT_EPOCH":7976,"BSTAR":1.2139e-5,"MEAN_MOTION_DOT":0,"MEAN_MOTION_DDOT":0},{"OBJECT_NAME":"STARLINK-11129 [DTC]","OBJECT_ID":"2024-112A","EPOCH":"2025-11-04T07:21:12.474432","MEAN_MOTION":15.69693967,"ECCENTRICITY":0.0002071,"INCLINATION":53.1542,"RA_OF_ASC_NODE":164.6962,"ARG_OF_PERICENTER":86.3172,"MEAN_ANOMALY":273.8083,"EPHEMERIS_TYPE":0,"CLASSIFICATION_TYPE":"U","NORAD_CAT_ID":60038,"ELEMENT_SET_NO":999,"REV_AT_EPOCH":8128,"BSTAR":3.5414e-5,"MEAN_MOTION_DOT":3.7e-5,"MEAN_MOTION_DDOT":0},{"OBJECT_NAME":"STARLINK-11140 [DTC]","OBJECT_ID":"2024-112B","EPOCH":"2025-11-03T23:35:42.919296","MEAN_MOTION":15.69729221,"ECCENTRICITY":8.526e-5,"INCLINATION":53.158,"RA_OF_ASC_NODE":166.2321,"ARG_OF_PERICENTER":116.5141,"MEAN_ANOMALY":243.5964,"EPHEMERIS_TYPE":0,"CLASSIFICATION_TYPE":"U","NORAD_CAT_ID":60039,"ELEMENT_SET_NO":999,"REV_AT_EPOCH":8123,"BSTAR":5.043432e-6,"MEAN_MOTION_DOT":2.3e-7,"MEAN_MOTION_DDOT":0},{"OBJECT_NAME":"STARLINK-11122 [DTC]","OBJECT_ID":"2024-112C","EPOCH":"2025-11-03T23:28:39.582624","MEAN_MOTION":15.69714261,"ECCENTRICITY":0.00015046,"INCLINATION":53.1566,"RA_OF_ASC_NODE":166.1999,"ARG_OF_PERICENTER":110.6982,"MEAN_ANOMALY":249.4197,"EPHEMERIS_TYPE":0,"CLASSIFICATION_TYPE":"U","NORAD_CAT_ID":60040,"ELEMENT_SET_NO":999,"REV_AT_EPOCH":8123,"BSTAR":3.94948e-6,"MEAN_MOTION_DOT":-1.11e-6,"MEAN_MOTION_DDOT":0},{"OBJECT_NAME":"STARLINK-11149 [DTC]","OBJECT_ID":"2024-112D","EPOCH":"2025-11-04T02:24:57.748896","MEAN_MOTION":15.69714706,"ECCENTRICITY":0.00020372,"INCLINATION":53.159,"RA_OF_ASC_NODE":165.5388,"ARG_OF_PERICENTER":93.796,"MEAN_ANOMALY":266.3291,"EPHEMERIS_TYPE":0,"CLASSIFICATION_TYPE":"U","NORAD_CAT_ID":60041,"ELEMENT_SET_NO":999,"REV_AT_EPOCH":8125,"BSTAR":6.127395e-6,"MEAN_MOTION_DOT":1.52e-6,"MEAN_MOTION_DDOT":0},{"OBJECT_NAME":"STARLINK-11120 [DTC]","OBJECT_ID":"2024-112E","EPOCH":"2025-11-03T21:42:51.170688","MEAN_MOTION":15.69707753,"ECCENTRICITY":9.49e-5,"INCLINATION":53.1581,"RA_OF_ASC_NODE":166.4489,"ARG_OF_PERICENTER":104.447,"MEAN_ANOMALY":255.6653,"EPHEMERIS_TYPE":0,"CLASSIFICATION_TYPE":"U","NORAD_CAT_ID":60042,"ELEMENT_SET_NO":999,"REV_AT_EPOCH":8122,"BSTAR":4.5195e-6,"MEAN_MOTION_DOT":-4.1e-7,"MEAN_MOTION_DDOT":0},{"OBJECT_NAME":"STARLINK-11086 [DTC]","OBJECT_ID":"2024-112F","EPOCH":"2025-11-03T00:12:12.607200","MEAN_MOTION":15.69718966,"ECCENTRICITY":9.336e-5,"INCLINATION":53.1595,"RA_OF_ASC_NODE":170.8103,"ARG_OF_PERICENTER":106.2647,"MEAN_ANOMALY":253.8473,"EPHEMERIS_TYPE":0,"CLASSIFICATION_TYPE":"U","NORAD_CAT_ID":60043,"ELEMENT_SET_NO":999,"REV_AT_EPOCH":8108,"BSTAR":-1.15785e-5,"MEAN_MOTION_DOT":-1.991e-5,"MEAN_MOTION_DDOT":0},{"OBJECT_NAME":"STARLINK-11148 [DTC]","OBJECT_ID":"2024-112G","EPOCH":"2025-11-03T07:43:33.932064","MEAN_MOTION":15.69718835,"ECCENTRICITY":0.00012095,"INCLINATION":53.1583,"RA_OF_ASC_NODE":169.2065,"ARG_OF_PERICENTER":74.9666,"MEAN_ANOMALY":285.1486,"EPHEMERIS_TYPE":0,"CLASSIFICATION_TYPE":"U","NORAD_CAT_ID":60044,"ELEMENT_SET_NO":999,"REV_AT_EPOCH":8113,"BSTAR":-5.912928e-6,"MEAN_MOTION_DOT":-1.305e-5,"MEAN_MOTION_DDOT":0},{"OBJECT_NAME":"STARLINK-11116 [DTC]","OBJECT_ID":"2024-112H","EPOCH":"2025-11-04T08:03:26.913888","MEAN_MOTION":15.69707775,"ECCENTRICITY":0.0001446,"INCLINATION":53.1581,"RA_OF_ASC_NODE":164.153,"ARG_OF_PERICENTER":106.0892,"MEAN_ANOMALY":254.0286,"EPHEMERIS_TYPE":0,"CLASSIFICATION_TYPE":"U","NORAD_CAT_ID":60045,"ELEMENT_SET_NO":999,"REV_AT_EPOCH":8129,"BSTAR":2.8362e-6,"MEAN_MOTION_DOT":-2.46e-6,"MEAN_MOTION_DDOT":0},{"OBJECT_NAME":"STARLINK-11155 [DTC]","OBJECT_ID":"2024-112J","EPOCH":"2025-11-04T07:56:22.683840","MEAN_MOTION":15.69714834,"ECCENTRICITY":6.88e-5,"INCLINATION":53.159,"RA_OF_ASC_NODE":164.1209,"ARG_OF_PERICENTER":71.7703,"MEAN_ANOMALY":288.3389,"EPHEMERIS_TYPE":0,"CLASSIFICATION_TYPE":"U","NORAD_CAT_ID":60046,"ELEMENT_SET_NO":999,"REV_AT_EPOCH":8129,"BSTAR":-9.8439e-7,"MEAN_MOTION_DOT":-7.07e-6,"MEAN_MOTION_DDOT":0},{"OBJECT_NAME":"STARLINK-11163 [DTC]","OBJECT_ID":"2024-112K","EPOCH":"2025-11-04T01:42:34.371360","MEAN_MOTION":15.6971797,"ECCENTRICITY":8.995e-5,"INCLINATION":53.158,"RA_OF_ASC_NODE":165.3428,"ARG_OF_PERICENTER":86.5728,"MEAN_ANOMALY":273.5393,"EPHEMERIS_TYPE":0,"CLASSIFICATION_TYPE":"U","NORAD_CAT_ID":60047,"ELEMENT_SET_NO":999,"REV_AT_EPOCH":8125,"BSTAR":5.979484e-6,"MEAN_MOTION_DOT":1.36e-6,"MEAN_MOTION_DDOT":0},{"OBJECT_NAME":"STARLINK-11135 [DTC]","OBJECT_ID":"2024-112L","EPOCH":"2025-11-03T23:49:42.706560","MEAN_MOTION":15.69710284,"ECCENTRICITY":8.592e-5,"INCLINATION":53.1599,"RA_OF_ASC_NODE":165.5768,"ARG_OF_PERICENTER":112.4414,"MEAN_ANOMALY":247.6695,"EPHEMERIS_TYPE":0,"CLASSIFICATION_TYPE":"U","NORAD_CAT_ID":60048,"ELEMENT_SET_NO":999,"REV_AT_EPOCH":8124,"BSTAR":1.95189e-7,"MEAN_MOTION_DOT":-5.65e-6,"MEAN_MOTION_DDOT":0},{"OBJECT_NAME":"STARLINK-11151 [DTC]","OBJECT_ID":"2024-112M","EPOCH":"2025-11-03T21:00:28.247616","MEAN_MOTION":15.69704649,"ECCENTRICITY":0.0001033,"INCLINATION":53.1576,"RA_OF_ASC_NODE":166.2524,"ARG_OF_PERICENTER":79.9755,"MEAN_ANOMALY":280.1379,"EPHEMERIS_TYPE":0,"CLASSIFICATION_TYPE":"U","NORAD_CAT_ID":60049,"ELEMENT_SET_NO":999,"REV_AT_EPOCH":8122,"BSTAR":-3.1512e-7,"MEAN_MOTION_DOT":-6.27e-6,"MEAN_MOTION_DDOT":0}]
